[{"OBJECT_NAME":"BRO-12","OBJECT_ID":"2024-043L","EPOCH":"2026-03-09T22:37:32.158848","MEAN_MOTION":14.96535251,"ECCENTRICITY":0.00077366,"INCLINATION":97.831,"RA_OF_ASC_NODE":199.8995,"ARG_OF_PERICENTER":330.9773,"MEAN_ANOMALY":29.1017,"EPHEMERIS_TYPE":0,"CLASSIFICATION_TYPE":"U","NORAD_CAT_ID":59108,"ELEMENT_SET_NO":999,"REV_AT_EPOCH":10979,"BSTAR":0.00015413906,"MEAN_MOTION_DOT":1.694e-5,"MEAN_MOTION_DDOT":0},{"OBJECT_NAME":"RUBIN-2 & SAFIR-M","OBJECT_ID":"2002-058A","EPOCH":"2026-03-09T10:09:37.751904","MEAN_MOTION":14.79300833,"ECCENTRICITY":0.00785333,"INCLINATION":64.5523,"RA_OF_ASC_NODE":77.3867,"ARG_OF_PERICENTER":281.6967,"MEAN_ANOMALY":77.5333,"EPHEMERIS_TYPE":0,"CLASSIFICATION_TYPE":"U","NORAD_CAT_ID":27605,"ELEMENT_SET_NO":999,"REV_AT_EPOCH":24982,"BSTAR":0.00016474829,"MEAN_MOTION_DOT":1.141e-5,"MEAN_MOTION_DDOT":0}]
